{
    "links": {
        "self": "http://www.neowsapp.com/rest/v1/neo/54051135?api_key=iIulBulltgU6a56xZRHN4H3l9WmuAYTsLGpBGhQ2"
    },
    "id": "54051135",
    "neo_reference_id": "54051135",
    "name": "(2020 QH)",
    "designation": "2020 QH",
    "nasa_jpl_url": "http://ssd.jpl.nasa.gov/sbdb.cgi?sstr=54051135",
    "absolute_magnitude_h": 25.445,
    "estimated_diameter": {
        "kilometers": {
            "estimated_diameter_min": 0.0216548399,
            "estimated_diameter_max": 0.048421694
        },
        "meters": {
            "estimated_diameter_min": 21.6548398693,
            "estimated_diameter_max": 48.4216939896
        },
        "miles": {
            "estimated_diameter_min": 0.0134556895,
            "estimated_diameter_max": 0.0300878364
        },
        "feet": {
            "estimated_diameter_min": 71.0460648367,
            "estimated_diameter_max": 158.8638305087
        }
    },
    "is_potentially_hazardous_asteroid": false,
    "close_approach_data": [
        {
            "close_approach_date": "2020-08-14",
            "close_approach_date_full": "2020-Aug-14 11:14",
            "epoch_date_close_approach": 1597403640000,
            "relative_velocity": {
                "kilometers_per_second": "11.5384970177",
                "kilometers_per_hour": "41538.589263833",
                "miles_per_hour": "25810.4639789634"
            },
            "miss_distance": {
                "astronomical": "0.0170675188",
                "lunar": "6.6392648132",
                "kilometers": "2553264.458664956",
                "miles": "1586524.9664741528"
            },
            "orbiting_body": "Earth"
        },
        {
            "close_approach_date": "2022-04-14",
            "close_approach_date_full": "2022-Apr-14 15:05",
            "epoch_date_close_approach": 1649948700000,
            "relative_velocity": {
                "kilometers_per_second": "10.4873385232",
                "kilometers_per_hour": "37754.4186835387",
                "miles_per_hour": "23459.1275425577"
            },
            "miss_distance": {
                "astronomical": "0.1065257571",
                "lunar": "41.4385195119",
                "kilometers": "15936026.362297377",
                "miles": "9902187.6109907226"
            },
            "orbiting_body": "Earth"
        },
        {
            "close_approach_date": "2085-08-18",
            "close_approach_date_full": "2085-Aug-18 15:08",
            "epoch_date_close_approach": 3648985680000,
            "relative_velocity": {
                "kilometers_per_second": "12.6039455167",
                "kilometers_per_hour": "45374.2038602579",
                "miles_per_hour": "28193.7657263919"
            },
            "miss_distance": {
                "astronomical": "0.0386920174",
                "lunar": "15.0511947686",
                "kilometers": "5788243.389042938",
                "miles": "3596647.6631830244"
            },
            "orbiting_body": "Earth"
        },
        {
            "close_approach_date": "2087-04-22",
            "close_approach_date_full": "2087-Apr-22 11:07",
            "epoch_date_close_approach": 3701848020000,
            "relative_velocity": {
                "kilometers_per_second": "9.1699951817",
                "kilometers_per_hour": "33011.9826542215",
                "miles_per_hour": "20512.3622220078"
            },
            "miss_distance": {
                "astronomical": "0.1277676821",
                "lunar": "49.7016283369",
                "kilometers": "19113773.096997127",
                "miles": "11876747.8703572726"
            },
            "orbiting_body": "Earth"
        },
        {
            "close_approach_date": "2089-03-17",
            "close_approach_date_full": "2089-Mar-17 18:16",
            "epoch_date_close_approach": 3761921760000,
            "relative_velocity": {
                "kilometers_per_second": "24.8265225422",
                "kilometers_per_hour": "89375.4811518001",
                "miles_per_hour": "55534.4482745727"
            },
            "miss_distance": {
                "astronomical": "0.4714330597",
                "lunar": "183.3874602233",
                "kilometers": "70525381.578702839",
                "miles": "43822440.0394596182"
            },
            "orbiting_body": "Earth"
        }
    ],
    "orbital_data": {
        "orbit_id": "13",
        "orbit_determination_date": "2020-10-26 09:35:44",
        "first_observation_date": "2020-08-16",
        "last_observation_date": "2020-08-26",
        "data_arc_in_days": 10,
        "observations_used": 83,
        "orbit_uncertainty": "7",
        "minimum_orbit_intersection": ".0170336",
        "jupiter_tisserand_invariant": "4.347",
        "epoch_osculation": "2459000.5",
        "eccentricity": ".439694983167064",
        "semi_major_axis": "1.540991033835873",
        "inclination": "7.171012574974645",
        "ascending_node_longitude": "329.1877626693557",
        "orbital_period": "698.7126314603489",
        "perihelion_distance": ".8634250071528122",
        "perihelion_argument": "292.9102292501528",
        "aphelion_distance": "2.218557060518934",
        "perihelion_time": "2459030.403797111221",
        "mean_anomaly": "344.5925685677966",
        "mean_motion": ".5152332787337474",
        "equinox": "J2000",
        "orbit_class": {
            "orbit_class_type": "APO",
            "orbit_class_description": "Near-Earth asteroid orbits which cross the Earth’s orbit similar to that of 1862 Apollo",
            "orbit_class_range": "a (semi-major axis) > 1.0 AU; q (perihelion) < 1.017 AU"
        }
    },
    "is_sentry_object": false
}